start=new Date('2021-10-16T00:00:00.000Z').valueOf();
sats=[{"GP_ID":"187280073","REV_AT_EPOCH":"3888","MEAN_ELEMENT_THEORY":"SGP4","MEAN_MOTION_DOT":"0.00000795","OBJECT_ID":"2021-009BL","ECCENTRICITY":"0.00013600","MEAN_ANOMALY":"256.4150","CENTER_NAME":"EARTH","MEAN_MOTION":"15.06391213","RCS_SIZE":"LARGE","TLE_LINE2":"2 47606  53.0559  21.0026 0001360 103.6991 256.4150 15.06391213 38883","CLASSIFICATION_TYPE":"U","FILE":"3165217","SITE":"AFETR","EPOCH":"2021-10-15T17:41:21.453504","ELEMENT_SET_NO":"999","PERIAPSIS":"546.299","NORAD_CAT_ID":"47606","BSTAR":"0.00007224500000","APOAPSIS":"548.182","EPHEMERIS_TYPE":"0","OBJECT_NAME":"STARLINK-2024","TLE_LINE1":"1 47606U 21009BL  21288.73705386  .00000795  00000-0  72245-4 0  9990","DECAY_DATE":null,"REF_FRAME":"TEME","COUNTRY_CODE":"US","SEMIMAJOR_AXIS":"6925.375","OBJECT_TYPE":"PAYLOAD","ARG_OF_PERICENTER":"103.6991","TIME_SYSTEM":"UTC","RA_OF_ASC_NODE":"21.0026","MEAN_MOTION_DDOT":"0.0000000000000","INCLINATION":"53.0559","PERIOD":"95.593","LAUNCH_DATE":"2021-02-04"},{"MEAN_MOTION_DDOT":"0.0000000000000","INCLINATION":"53.0566","ARG_OF_PERICENTER":"86.6456","TIME_SYSTEM":"UTC","RA_OF_ASC_NODE":"21.7255","SEMIMAJOR_AXIS":"6925.378","OBJECT_TYPE":"PAYLOAD","TLE_LINE1":"1 47607U 21009BM  21288.58224470 -.00001060  00000-0 -52308-4 0  9990","DECAY_DATE":null,"OBJECT_NAME":"STARLINK-2025","REF_FRAME":"TEME","COUNTRY_CODE":"US","LAUNCH_DATE":"2021-02-04","PERIOD":"95.593","MEAN_ELEMENT_THEORY":"SGP4","MEAN_MOTION_DOT":"-0.00001060","REV_AT_EPOCH":"3885","GP_ID":"187280325","NORAD_CAT_ID":"47607","PERIAPSIS":"546.418","ELEMENT_SET_NO":"999","BSTAR":"-0.00005230800000","APOAPSIS":"548.069","EPHEMERIS_TYPE":"0","FILE":"3165217","SITE":"AFETR","EPOCH":"2021-10-15T13:58:25.942080","CENTER_NAME":"EARTH","MEAN_MOTION":"15.06390358","RCS_SIZE":"LARGE","TLE_LINE2":"2 47607  53.0566  21.7255 0001192  86.6456 273.4670 15.06390358 38854","CLASSIFICATION_TYPE":"U","OBJECT_ID":"2021-009BM","MEAN_ANOMALY":"273.4670","ECCENTRICITY":"0.00011920"},{"SEMIMAJOR_AXIS":"6925.376","OBJECT_TYPE":"PAYLOAD","REF_FRAME":"TEME","TLE_LINE1":"1 47620U 21012A   21288.73153109 -.00000504  00000-0 -14926-4 0  9992","OBJECT_NAME":"STARLINK-1528","DECAY_DATE":null,"COUNTRY_CODE":"US","MEAN_MOTION_DDOT":"0.0000000000000","INCLINATION":"53.0563","TIME_SYSTEM":"UTC","ARG_OF_PERICENTER":"81.2610","RA_OF_ASC_NODE":"81.0498","PERIOD":"95.593","LAUNCH_DATE":"2021-02-16","GP_ID":"187280074","MEAN_ELEMENT_THEORY":"SGP4","MEAN_MOTION_DOT":"-0.00000504","REV_AT_EPOCH":"3792","MEAN_MOTION":"15.06391176","CENTER_NAME":"EARTH","TLE_LINE2":"2 47620  53.0563  81.0498 0001419  81.2610 278.8540 15.06391176 37920","CLASSIFICATION_TYPE":"U","RCS_SIZE":"LARGE","OBJECT_ID":"2021-012A","ECCENTRICITY":"0.00014190","MEAN_ANOMALY":"278.8540","BSTAR":"-0.00001492600000","PERIAPSIS":"546.258","ELEMENT_SET_NO":"999","NORAD_CAT_ID":"47620","EPHEMERIS_TYPE":"0","APOAPSIS":"548.223","SITE":"AFETR","FILE":"3165217","EPOCH":"2021-10-15T17:33:24.286176"},{"SITE":"AFETR","FILE":"3165217","EPOCH":"2021-10-15T17:22:47.066304","BSTAR":"0.00000030028000","PERIAPSIS":"546.292","ELEMENT_SET_NO":"999","NORAD_CAT_ID":"47621","EPHEMERIS_TYPE":"0","APOAPSIS":"548.206","OBJECT_ID":"2021-012B","MEAN_ANOMALY":"254.6722","ECCENTRICITY":"0.00013820","MEAN_MOTION":"15.06388304","CENTER_NAME":"EARTH","TLE_LINE2":"2 47621  53.0560  81.0722 0001382 105.4419 254.6722 15.06388304 37937","CLASSIFICATION_TYPE":"U","RCS_SIZE":"LARGE","REV_AT_EPOCH":"3793","MEAN_ELEMENT_THEORY":"SGP4","MEAN_MOTION_DOT":"-0.00000277","GP_ID":"187280326","LAUNCH_DATE":"2021-02-16","PERIOD":"95.593","TIME_SYSTEM":"UTC","ARG_OF_PERICENTER":"105.4419","RA_OF_ASC_NODE":"81.0722","INCLINATION":"53.0560","MEAN_MOTION_DDOT":"0.0000000000000","REF_FRAME":"TEME","OBJECT_NAME":"STARLINK-1609","TLE_LINE1":"1 47621U 21012B   21288.72415586 -.00000277  00000-0  30028-6 0  9991","DECAY_DATE":null,"COUNTRY_CODE":"US","SEMIMAJOR_AXIS":"6925.384","OBJECT_TYPE":"PAYLOAD"},{"RA_OF_ASC_NODE":"81.0819","TIME_SYSTEM":"UTC","ARG_OF_PERICENTER":"85.6292","INCLINATION":"53.0554","MEAN_MOTION_DDOT":"0.0000000000000","COUNTRY_CODE":"US","REF_FRAME":"TEME","DECAY_DATE":null,"TLE_LINE1":"1 47622U 21012C   21288.72047498 -.00000445  00000-0 -10962-4 0  9996","OBJECT_NAME":"STARLINK-1645","OBJECT_TYPE":"PAYLOAD","SEMIMAJOR_AXIS":"6925.393","LAUNCH_DATE":"2021-02-16","PERIOD":"95.593","REV_AT_EPOCH":"3792","MEAN_MOTION_DOT":"-0.00000445","MEAN_ELEMENT_THEORY":"SGP4","GP_ID":"187281076","EPOCH":"2021-10-15T17:17:29.038272","SITE":"AFETR","FILE":"3165217","EPHEMERIS_TYPE":"0","APOAPSIS":"548.214","BSTAR":"-0.00001096200000","NORAD_CAT_ID":"47622","PERIAPSIS":"546.303","ELEMENT_SET_NO":"999","ECCENTRICITY":"0.00013800","MEAN_ANOMALY":"274.4855","OBJECT_ID":"2021-012C","TLE_LINE2":"2 47622  53.0554  81.0819 0001380  85.6292 274.4855 15.06385370 37920","CLASSIFICATION_TYPE":"U","RCS_SIZE":"LARGE","MEAN_MOTION":"15.06385370","CENTER_NAME":"EARTH"},{"OBJECT_ID":"2021-012D","MEAN_ANOMALY":"251.9149","ECCENTRICITY":"0.00012050","CENTER_NAME":"EARTH","MEAN_MOTION":"15.06387549","RCS_SIZE":"LARGE","TLE_LINE2":"2 47623  53.0565  16.3285 0001205 108.1972 251.9149 15.06387549 38830","CLASSIFICATION_TYPE":"U","FILE":"3165217","SITE":"AFETR","EPOCH":"2021-10-15T15:58:31.470528","PERIAPSIS":"546.417","ELEMENT_SET_NO":"999","NORAD_CAT_ID":"47623","BSTAR":"-0.00008205000000","APOAPSIS":"548.086","EPHEMERIS_TYPE":"0","GP_ID":"187279824","REV_AT_EPOCH":"3883","MEAN_ELEMENT_THEORY":"SGP4","MEAN_MOTION_DOT":"-0.00001503","PERIOD":"95.593","LAUNCH_DATE":"2021-02-16","OBJECT_NAME":"STARLINK-1655","TLE_LINE1":"1 47623U 21012D   21288.66564202 -.00001503  00000-0 -82050-4 0  9990","DECAY_DATE":null,"REF_FRAME":"TEME","COUNTRY_CODE":"US","SEMIMAJOR_AXIS":"6925.387","OBJECT_TYPE":"PAYLOAD","ARG_OF_PERICENTER":"108.1972","TIME_SYSTEM":"UTC","RA_OF_ASC_NODE":"16.3285","INCLINATION":"53.0565","MEAN_MOTION_DDOT":"0.0000000000000"},{"GP_ID":"187279575","MEAN_MOTION_DOT":"-0.00000110","MEAN_ELEMENT_THEORY":"SGP4","REV_AT_EPOCH":"3821","RCS_SIZE":"LARGE","CLASSIFICATION_TYPE":"U","TLE_LINE2":"2 47624  53.0568  61.3587 0001291 102.1772 257.9361 15.06400041 38213","CENTER_NAME":"EARTH","MEAN_MOTION":"15.06400041","MEAN_ANOMALY":"257.9361","ECCENTRICITY":"0.00012910","OBJECT_ID":"2021-012E","APOAPSIS":"548.107","EPHEMERIS_TYPE":"0","NORAD_CAT_ID":"47624","PERIAPSIS":"546.319","ELEMENT_SET_NO":"999","BSTAR":"0.00001149300000","EPOCH":"2021-10-15T15:49:52.954752","FILE":"3165217","SITE":"AFETR","OBJECT_TYPE":"PAYLOAD","SEMIMAJOR_AXIS":"6925.348","COUNTRY_CODE":"US","TLE_LINE1":"1 47624U 21012E   21288.65964068 -.00000110  00000-0  11493-4 0  9999","OBJECT_NAME":"STARLINK-1669","DECAY_DATE":null,"REF_FRAME":"TEME","INCLINATION":"53.0568","MEAN_MOTION_DDOT":"0.0000000000000","RA_OF_ASC_NODE":"61.3587","ARG_OF_PERICENTER":"102.1772","TIME_SYSTEM":"UTC","PERIOD":"95.592","LAUNCH_DATE":"2021-02-16"},{"COUNTRY_CODE":"US","REF_FRAME":"TEME","TLE_LINE1":"1 47625U 21012F   21288.79419141 -.00000828  00000-0 -36703-4 0  9990","DECAY_DATE":null,"OBJECT_NAME":"STARLINK-1704","OBJECT_TYPE":"PAYLOAD","SEMIMAJOR_AXIS":"6925.366","RA_OF_ASC_NODE":"80.7562","TIME_SYSTEM":"UTC","ARG_OF_PERICENTER":"96.0094","MEAN_MOTION_DDOT":"0.0000000000000","INCLINATION":"53.0562","PERIOD":"95.593","LAUNCH_DATE":"2021-02-16","GP_ID":"187280826","REV_AT_EPOCH":"3793","MEAN_MOTION_DOT":"-0.00000828","MEAN_ELEMENT_THEORY":"SGP4","ECCENTRICITY":"0.00014650","MEAN_ANOMALY":"264.1062","OBJECT_ID":"2021-012F","TLE_LINE2":"2 47625  53.0562  80.7562 0001465  96.0094 264.1062 15.06394176 37934","CLASSIFICATION_TYPE":"U","RCS_SIZE":"LARGE","MEAN_MOTION":"15.06394176","CENTER_NAME":"EARTH","EPOCH":"2021-10-15T19:03:38.137824","SITE":"AFETR","FILE":"3165217","EPHEMERIS_TYPE":"0","APOAPSIS":"548.246","BSTAR":"-0.00003670300000","ELEMENT_SET_NO":"999","PERIAPSIS":"546.217","NORAD_CAT_ID":"47625"},{"PERIOD":"95.592","LAUNCH_DATE":"2021-02-16","TLE_LINE1":"1 47626U 21012G   21288.71309230 -.00000356  00000-0 -50210-5 0  9996","DECAY_DATE":null,"OBJECT_NAME":"STARLINK-1761","REF_FRAME":"TEME","COUNTRY_CODE":"US","SEMIMAJOR_AXIS":"6925.363","OBJECT_TYPE":"PAYLOAD","ARG_OF_PERICENTER":"105.5104","TIME_SYSTEM":"UTC","RA_OF_ASC_NODE":"81.1118","INCLINATION":"53.0554","MEAN_MOTION_DDOT":"0.0000000000000","OBJECT_ID":"2021-012G","ECCENTRICITY":"0.00016380","MEAN_ANOMALY":"254.6066","CENTER_NAME":"EARTH","MEAN_MOTION":"15.06395334","RCS_SIZE":"LARGE","TLE_LINE2":"2 47626  53.0554  81.1118 0001638 105.5104 254.6066 15.06395334 37922","CLASSIFICATION_TYPE":"U","FILE":"3165217","SITE":"AFETR","EPOCH":"2021-10-15T17:06:51.174720","ELEMENT_SET_NO":"999","PERIAPSIS":"546.093","NORAD_CAT_ID":"47626","BSTAR":"-0.00000502100000","APOAPSIS":"548.362","EPHEMERIS_TYPE":"0","GP_ID":"187280577","REV_AT_EPOCH":"3792","MEAN_ELEMENT_THEORY":"SGP4","MEAN_MOTION_DOT":"-0.00000356"},{"LAUNCH_DATE":"2021-02-16","PERIOD":"95.219","MEAN_MOTION_DDOT":"0.0000000000000","INCLINATION":"53.0424","RA_OF_ASC_NODE":"344.9506","TIME_SYSTEM":"UTC","ARG_OF_PERICENTER":"44.8981","OBJECT_TYPE":"PAYLOAD","SEMIMAJOR_AXIS":"6907.337","COUNTRY_CODE":"US","REF_FRAME":"TEME","DECAY_DATE":null,"TLE_LINE1":"1 47627U 21012H   21289.00002315 -.01045200  00000-0 -64324-1 0  9999","OBJECT_NAME":"STARLINK-1972","EPHEMERIS_TYPE":"0","APOAPSIS":"530.308","BSTAR":"-0.06432400000000","ELEMENT_SET_NO":"999","PERIAPSIS":"528.096","NORAD_CAT_ID":"47627","EPOCH":"2021-10-16T00:00:02.000160","SITE":"AFETR","FILE":"3165217","CLASSIFICATION_TYPE":"U","TLE_LINE2":"2 47627  53.0424 344.9506 0001601  44.8981 346.3695 15.12296043  3630","RCS_SIZE":"LARGE","MEAN_MOTION":"15.12296043","CENTER_NAME":"EARTH","ECCENTRICITY":"0.00016010","MEAN_ANOMALY":"346.3695","OBJECT_ID":"2021-012H","MEAN_MOTION_DOT":"-0.01045200","MEAN_ELEMENT_THEORY":"SGP4","REV_AT_EPOCH":"363","GP_ID":"187279325"}];
